{
  "type": "FeatureCollection",
  "features": [
    {
      "type": "Feature",
      "properties": {
        "norad_id": 66635,
        "name": "STARLINK-35955",
        "group": "last-30-days",
        "lat": 50.072864018348405,
        "lon": -84.25102065371176,
        "alt_km": 344.26201132083224,
        "timestamp": "2025-12-07T14:37:03.995228+00:00",
        "meta_object_name": "STARLINK-35955",
        "meta_object_id": "2025-271U",
        "meta_epoch": "2025-12-06T22:00:01.999584",
        "meta_mean_motion": 15.74574771,
        "meta_eccentricity": 0.000111,
        "meta_inclination": 53.1573,
        "meta_ra_of_asc_node": 215.5591,
        "meta_arg_of_pericenter": 91.1803,
        "meta_mean_anomaly": 17.8525,
        "meta_ephemeris_type": 0,
        "meta_classification_type": "U",
        "meta_norad_cat_id": 66635,
        "meta_element_set_no": 999,
        "meta_rev_at_epoch": 330,
        "meta_bstar": -0.010441013,
        "meta_mean_motion_dot": -0.01382265,
        "meta_mean_motion_ddot": 0,
        "tle_line1": "1 66635U 25271U   25340.91668981 -.01382265  00000+0 -10441-1 0  9994",
        "tle_line2": "2 66635  53.1573 215.5591 0001110  91.1803  17.8525 15.74574771  3307"
      },
      "geometry": {
        "type": "Point",
        "coordinates": [
          -84.25102065371176,
          50.072864018348405
        ]
      }
    },
    {
      "type": "Feature",
      "properties": {
        "norad_id": 66636,
        "name": "STARLINK-35968",
        "group": "last-30-days",
        "lat": 50.719397010266945,
        "lon": -81.4286011978912,
        "alt_km": 344.2505859015573,
        "timestamp": "2025-12-07T14:37:03.995238+00:00",
        "meta_object_name": "STARLINK-35968",
        "meta_object_id": "2025-271V",
        "meta_epoch": "2025-12-06T22:00:01.999584",
        "meta_mean_motion": 15.74571883,
        "meta_eccentricity": 9.877e-05,
        "meta_inclination": 53.1574,
        "meta_ra_of_asc_node": 215.5549,
        "meta_arg_of_pericenter": 83.4402,
        "meta_mean_anomaly": 27.5164,
        "meta_ephemeris_type": 0,
        "meta_classification_type": "U",
        "meta_norad_cat_id": 66636,
        "meta_element_set_no": 999,
        "meta_rev_at_epoch": 330,
        "meta_bstar": -0.010474213,
        "meta_mean_motion_dot": -0.01385946,
        "meta_mean_motion_ddot": 0,
        "tle_line1": "1 66636U 25271V   25340.91668981 -.01385946  00000+0 -10474-1 0  9990",
        "tle_line2": "2 66636  53.1574 215.5549 0000987  83.4402  27.5164 15.74571883  3300"
      },
      "geometry": {
        "type": "Point",
        "coordinates": [
          -81.4286011978912,
          50.719397010266945
        ]
      }
    },
    {
      "type": "Feature",
      "properties": {
        "norad_id": 66637,
        "name": "STARLINK-35953",
        "group": "last-30-days",
        "lat": 51.29838406220905,
        "lon": -78.51506221705405,
        "alt_km": 344.1641674277962,
        "timestamp": "2025-12-07T14:37:03.995248+00:00",
        "meta_object_name": "STARLINK-35953",
        "meta_object_id": "2025-271W",
        "meta_epoch": "2025-12-06T22:00:01.999584",
        "meta_mean_motion": 15.74568447,
        "meta_eccentricity": 0.00010116,
        "meta_inclination": 53.1572,
        "meta_ra_of_asc_node": 215.5512,
        "meta_arg_of_pericenter": 101.2142,
        "meta_mean_anomaly": 11.6585,
        "meta_ephemeris_type": 0,
        "meta_classification_type": "U",
        "meta_norad_cat_id": 66637,
        "meta_element_set_no": 999,
        "meta_rev_at_epoch": 330,
        "meta_bstar": -0.010408093,
        "meta_mean_motion_dot": -0.01377998,
        "meta_mean_motion_ddot": 0,
        "tle_line1": "1 66637U 25271W   25340.91668981 -.01377998  00000+0 -10408-1 0  9996",
        "tle_line2": "2 66637  53.1572 215.5512 0001011 101.2142  11.6585 15.74568447  3301"
      },
      "geometry": {
        "type": "Point",
        "coordinates": [
          -78.51506221705405,
          51.29838406220905
        ]
      }
    },
    {
      "type": "Feature",
      "properties": {
        "norad_id": 66638,
        "name": "STARLINK-35972",
        "group": "last-30-days",
        "lat": 51.80212180237261,
        "lon": -75.54032182556377,
        "alt_km": 344.3993992801188,
        "timestamp": "2025-12-07T14:37:03.995258+00:00",
        "meta_object_name": "STARLINK-35972",
        "meta_object_id": "2025-271X",
        "meta_epoch": "2025-12-06T22:00:01.999584",
        "meta_mean_motion": 15.74583953,
        "meta_eccentricity": 5.234e-05,
        "meta_inclination": 53.1573,
        "meta_ra_of_asc_node": 215.5474,
        "meta_arg_of_pericenter": 78.1681,
        "meta_mean_anomaly": 36.6024,
        "meta_ephemeris_type": 0,
        "meta_classification_type": "U",
        "meta_norad_cat_id": 66638,
        "meta_element_set_no": 999,
        "meta_rev_at_epoch": 330,
        "meta_bstar": -0.01050326,
        "meta_mean_motion_dot": -0.0138977,
        "meta_mean_motion_ddot": 0,
        "tle_line1": "1 66638U 25271X   25340.91668981 -.01389770  00000+0 -10503-1 0  9994",
        "tle_line2": "2 66638  53.1573 215.5474 0000523  78.1681  36.6024 15.74583953  3301"
      },
      "geometry": {
        "type": "Point",
        "coordinates": [
          -75.54032182556377,
          51.80212180237261
        ]
      }
    },
    {
      "type": "Feature",
      "properties": {
        "norad_id": 66639,
        "name": "STARLINK-35908",
        "group": "last-30-days",
        "lat": 52.23335926456624,
        "lon": -72.46957324962196,
        "alt_km": 343.71467916348047,
        "timestamp": "2025-12-07T14:37:03.995267+00:00",
        "meta_object_name": "STARLINK-35908",
        "meta_object_id": "2025-271Y",
        "meta_epoch": "2025-12-06T22:00:01.999584",
        "meta_mean_motion": 15.74562016,
        "meta_eccentricity": 0.00013033,
        "meta_inclination": 53.1574,
        "meta_ra_of_asc_node": 215.5429,
        "meta_arg_of_pericenter": 82.9685,
        "meta_mean_anomaly": 33.73,
        "meta_ephemeris_type": 0,
        "meta_classification_type": "U",
        "meta_norad_cat_id": 66639,
        "meta_element_set_no": 999,
        "meta_rev_at_epoch": 330,
        "meta_bstar": -0.010241362,
        "meta_mean_motion_dot": -0.01358153,
        "meta_mean_motion_ddot": 0,
        "tle_line1": "1 66639U 25271Y   25340.91668981 -.01358153  00000+0 -10241-1 0  9995",
        "tle_line2": "2 66639  53.1574 215.5429 0001303  82.9685  33.7300 15.74562016  3309"
      },
      "geometry": {
        "type": "Point",
        "coordinates": [
          -72.46957324962196,
          52.23335926456624
        ]
      }
    },
    {
      "type": "Feature",
      "properties": {
        "norad_id": 66640,
        "name": "STARLINK-35921",
        "group": "last-30-days",
        "lat": 52.577126189158214,
        "lon": -69.40428408025676,
        "alt_km": 343.9771648620672,
        "timestamp": "2025-12-07T14:37:03.995279+00:00",
        "meta_object_name": "STARLINK-35921",
        "meta_object_id": "2025-271Z",
        "meta_epoch": "2025-12-06T22:00:01.999584",
        "meta_mean_motion": 15.74579973,
        "meta_eccentricity": 9.517e-05,
        "meta_inclination": 53.1574,
        "meta_ra_of_asc_node": 215.5394,
        "meta_arg_of_pericenter": 82.4822,
        "meta_mean_anomaly": 36.124,
        "meta_ephemeris_type": 0,
        "meta_classification_type": "U",
        "meta_norad_cat_id": 66640,
        "meta_element_set_no": 999,
        "meta_rev_at_epoch": 330,
        "meta_bstar": -0.010453018,
        "meta_mean_motion_dot": -0.01383872,
        "meta_mean_motion_ddot": 0,
        "tle_line1": "1 66640U 25271Z   25340.91668981 -.01383872  00000+0 -10453-1 0  9998",
        "tle_line2": "2 66640  53.1574 215.5394 0000951  82.4822  36.1240 15.74579973  3308"
      },
      "geometry": {
        "type": "Point",
        "coordinates": [
          -69.40428408025676,
          52.577126189158214
        ]
      }
    },
    {
      "type": "Feature",
      "properties": {
        "norad_id": 66641,
        "name": "STARLINK-35923",
        "group": "last-30-days",
        "lat": 53.13129031541742,
        "lon": -56.718623491258306,
        "alt_km": 343.93672418564984,
        "timestamp": "2025-12-07T14:37:03.995292+00:00",
        "meta_object_name": "STARLINK-35923",
        "meta_object_id": "2025-271AA",
        "meta_epoch": "2025-12-06T22:00:01.999584",
        "meta_mean_motion": 15.74587604,
        "meta_eccentricity": 9.287e-05,
        "meta_inclination": 53.1573,
        "meta_ra_of_asc_node": 215.5223,
        "meta_arg_of_pericenter": 96.0205,
        "meta_mean_anomaly": 30.2503,
        "meta_ephemeris_type": 0,
        "meta_classification_type": "U",
        "meta_norad_cat_id": 66641,
        "meta_element_set_no": 999,
        "meta_rev_at_epoch": 330,
        "meta_bstar": -0.01050952,
        "meta_mean_motion_dot": -0.01390913,
        "meta_mean_motion_ddot": 0,
        "tle_line1": "1 66641U 25271AA  25340.91668981 -.01390913  00000+0 -10510-1 0  9997",
        "tle_line2": "2 66641  53.1573 215.5223 0000928  96.0205  30.2503 15.74587604  3306"
      },
      "geometry": {
        "type": "Point",
        "coordinates": [
          -56.718623491258306,
          53.13129031541742
        ]
      }
    }
  ]
}